IRIDIUM 921             
1 24873U 97034E   24200.24059543  .00043304  00000+0  10259-2 0  9999
2 24873  86.3800 272.7140 0006023 126.6491 233.5318 15.41568141479960
IRIDIUM 26              
1 24903U 97043A   24200.60689865  .00000918  00000+0  30657-3 0  9998
2 24903  86.3937 250.5701 0002448  95.4101 264.7376 14.36441117408845
IRIDIUM 22              
1 24907U 97043E   24200.54745639  .00000843  00000+0  28735-3 0  9998
2 24907  86.3941 253.8576 0002229  92.9059 267.2393 14.35327884408908
DUMMY MASS 1            
1 24925U 97048A   24200.50024523  .00001022  00000+0  11308-3 0  9999
2 24925  86.3347 289.5207 0004672 238.8493 121.2274 14.86290818455554
DUMMY MASS 2            
1 24926U 97048B   24200.54196786  .00001020  00000+0  11351-3 0  9991
2 24926  86.3348 291.0504 0005301 256.0172 104.0463 14.86048667455349
IRIDIUM 33              
1 24946U 97051C   24200.59683191  .00000707  00000+0  24413-3 0  9997
2 24946  86.3866 282.9852 0010100  88.7069 271.5284 14.34421780404911
IRIDIUM 28              
1 24948U 97051E   24200.59327060  .00000963  00000+0  32021-3 0  9997
2 24948  86.3955 281.4419 0002647  95.0808 265.0692 14.36734703405932
